{
  "type": "FeatureCollection",
  "features": [
    {
      "type": "Feature",
      "properties": {
        "norad_id": 40938,
        "name": "BEIDOU-3S IGSO-2S (C56)",
        "group": "gnss",
        "lat": -25.579108439547106,
        "lon": 105.02972491964898,
        "alt_km": 35559.12579260835,
        "timestamp": "2025-12-16T19:34:24.509440+00:00",
        "meta_object_name": "BEIDOU-3S IGSO-2S (C56)",
        "meta_object_id": "2015-053A",
        "meta_epoch": "2025-12-15T17:16:15.906720",
        "meta_mean_motion": 1.00269697,
        "meta_eccentricity": 0.00606798,
        "meta_inclination": 49.506,
        "meta_ra_of_asc_node": 260.9696,
        "meta_arg_of_pericenter": 188.8642,
        "meta_mean_anomaly": 349.819,
        "meta_ephemeris_type": 0,
        "meta_classification_type": "U",
        "meta_norad_cat_id": 40938,
        "meta_element_set_no": 999,
        "meta_rev_at_epoch": 3751,
        "meta_bstar": 0,
        "meta_mean_motion_dot": -1.43e-06,
        "meta_mean_motion_ddot": 0,
        "tle_line1": "1 40938U 15053A   25349.71962855 -.00000143  00000+0  00000+0 0  9991",
        "tle_line2": "2 40938  49.5060 260.9696 0060679 188.8642 349.8190  1.00269697 37513"
      },
      "geometry": {
        "type": "Point",
        "coordinates": [
          105.02972491964898,
          -25.579108439547106
        ]
      }
    },
    {
      "type": "Feature",
      "properties": {
        "norad_id": 41019,
        "name": "GPS BIIF-11 (PRN 10)",
        "group": "gnss",
        "lat": 10.111805831693252,
        "lon": 44.55507412150425,
        "alt_km": 20412.481731746455,
        "timestamp": "2025-12-16T19:34:24.509455+00:00",
        "meta_object_name": "GPS BIIF-11 (PRN 10)",
        "meta_object_id": "2015-062A",
        "meta_epoch": "2025-12-12T19:26:17.014560",
        "meta_mean_motion": 2.00567164,
        "meta_eccentricity": 0.01108438,
        "meta_inclination": 56.8322,
        "meta_ra_of_asc_node": 37.9995,
        "meta_arg_of_pericenter": 229.9503,
        "meta_mean_anomaly": 129.1214,
        "meta_ephemeris_type": 0,
        "meta_classification_type": "U",
        "meta_norad_cat_id": 41019,
        "meta_element_set_no": 999,
        "meta_rev_at_epoch": 7409,
        "meta_bstar": 0,
        "meta_mean_motion_dot": -9.6e-07,
        "meta_mean_motion_ddot": 0,
        "tle_line1": "1 41019U 15062A   25346.80991915 -.00000096  00000+0  00000+0 0  9995",
        "tle_line2": "2 41019  56.8322  37.9995 0110843 229.9503 129.1214  2.00567164 74093"
      },
      "geometry": {
        "type": "Point",
        "coordinates": [
          44.55507412150425,
          10.111805831693252
        ]
      }
    },
    {
      "type": "Feature",
      "properties": {
        "norad_id": 41028,
        "name": "GSAT-15 (GAGAN/PRN 139)",
        "group": "gnss",
        "lat": -0.0004909196489715963,
        "lon": 112.75867148715199,
        "alt_km": 35791.59630730507,
        "timestamp": "2025-12-16T19:34:24.509476+00:00",
        "meta_object_name": "GSAT-15 (GAGAN/PRN 139)",
        "meta_object_id": "2015-065A",
        "meta_epoch": "2025-12-15T20:40:46.824384",
        "meta_mean_motion": 1.00271163,
        "meta_eccentricity": 0.00026943,
        "meta_inclination": 0.0387,
        "meta_ra_of_asc_node": 267.8488,
        "meta_arg_of_pericenter": 322.0825,
        "meta_mean_anomaly": 258.5221,
        "meta_ephemeris_type": 0,
        "meta_classification_type": "U",
        "meta_norad_cat_id": 41028,
        "meta_element_set_no": 999,
        "meta_rev_at_epoch": 3696,
        "meta_bstar": 0,
        "meta_mean_motion_dot": -2.35e-06,
        "meta_mean_motion_ddot": 0,
        "tle_line1": "1 41028U 15065A   25349.86165306 -.00000235  00000+0  00000+0 0  9999",
        "tle_line2": "2 41028   0.0387 267.8488 0002694 322.0825 258.5221  1.00271163 36961"
      },
      "geometry": {
        "type": "Point",
        "coordinates": [
          112.75867148715199,
          -0.0004909196489715963
        ]
      }
    },
    {
      "type": "Feature",
      "properties": {
        "norad_id": 41174,
        "name": "GSAT0209 (GALILEO 12)",
        "group": "gnss",
        "lat": 42.30115446606122,
        "lon": -112.07054145308037,
        "alt_km": 23222.208383232264,
        "timestamp": "2025-12-16T19:34:24.509494+00:00",
        "meta_object_name": "GSAT0209 (GALILEO 12)",
        "meta_object_id": "2015-079A",
        "meta_epoch": "2025-12-13T16:16:46.046208",
        "meta_mean_motion": 1.70474514,
        "meta_eccentricity": 0.00024314,
        "meta_inclination": 55.7133,
        "meta_ra_of_asc_node": 106.3552,
        "meta_arg_of_pericenter": 349.5598,
        "meta_mean_anomaly": 10.4024,
        "meta_ephemeris_type": 0,
        "meta_classification_type": "U",
        "meta_norad_cat_id": 41174,
        "meta_element_set_no": 999,
        "meta_rev_at_epoch": 6161,
        "meta_bstar": 0,
        "meta_mean_motion_dot": -1e-08,
        "meta_mean_motion_ddot": 0,
        "tle_line1": "1 41174U 15079A   25347.67831072 -.00000001  00000+0  00000+0 0  9994",
        "tle_line2": "2 41174  55.7133 106.3552 0002431 349.5598  10.4024  1.70474514 61616"
      },
      "geometry": {
        "type": "Point",
        "coordinates": [
          -112.07054145308037,
          42.30115446606122
        ]
      }
    },
    {
      "type": "Feature",
      "properties": {
        "norad_id": 41175,
        "name": "GSAT0208 (GALILEO 11)",
        "group": "gnss",
        "lat": -8.011976166145747,
        "lon": 100.74862663922276,
        "alt_km": 23217.938144311192,
        "timestamp": "2025-12-16T19:34:24.509509+00:00",
        "meta_object_name": "GSAT0208 (GALILEO 11)",
        "meta_object_id": "2015-079B",
        "meta_epoch": "2025-12-12T17:24:26.771040",
        "meta_mean_motion": 1.70474307,
        "meta_eccentricity": 0.00018806,
        "meta_inclination": 55.7111,
        "meta_ra_of_asc_node": 106.3784,
        "meta_arg_of_pericenter": 358.3144,
        "meta_mean_anomaly": 1.6545,
        "meta_ephemeris_type": 0,
        "meta_classification_type": "U",
        "meta_norad_cat_id": 41175,
        "meta_element_set_no": 999,
        "meta_rev_at_epoch": 6201,
        "meta_bstar": 0,
        "meta_mean_motion_dot": 4e-08,
        "meta_mean_motion_ddot": 0,
        "tle_line1": "1 41175U 15079B   25346.72530985  .00000004  00000+0  00000+0 0  9991",
        "tle_line2": "2 41175  55.7111 106.3784 0001880 358.3144   1.6545  1.70474307 62017"
      },
      "geometry": {
        "type": "Point",
        "coordinates": [
          100.74862663922276,
          -8.011976166145747
        ]
      }
    },
    {
      "type": "Feature",
      "properties": {
        "norad_id": 41241,
        "name": "IRNSS-1E",
        "group": "gnss",
        "lat": 30.318388429716922,
        "lon": 127.2533969234371,
        "alt_km": 35827.57042984049,
        "timestamp": "2025-12-16T19:34:24.509522+00:00",
        "meta_object_name": "IRNSS-1E",
        "meta_object_id": "2016-003A",
        "meta_epoch": "2025-12-12T20:06:57.569184",
        "meta_mean_motion": 1.00273817,
        "meta_eccentricity": 0.00218004,
        "meta_inclination": 32.8255,
        "meta_ra_of_asc_node": 62.4521,
        "meta_arg_of_pericenter": 187.6915,
        "meta_mean_anomaly": 245.1684,
        "meta_ephemeris_type": 0,
        "meta_classification_type": "U",
        "meta_norad_cat_id": 41241,
        "meta_element_set_no": 999,
        "meta_rev_at_epoch": 3621,
        "meta_bstar": 0,
        "meta_mean_motion_dot": -3.05e-06,
        "meta_mean_motion_ddot": 0,
        "tle_line1": "1 41241U 16003A   25346.83816631 -.00000305  00000+0  00000+0 0  9995",
        "tle_line2": "2 41241  32.8255  62.4521 0021800 187.6915 245.1684  1.00273817 36218"
      },
      "geometry": {
        "type": "Point",
        "coordinates": [
          127.2533969234371,
          30.318388429716922
        ]
      }
    },
    {
      "type": "Feature",
      "properties": {
        "norad_id": 41328,
        "name": "GPS BIIF-12 (PRN 32)",
        "group": "gnss",
        "lat": -37.23288654273569,
        "lon": 65.1012846994159,
        "alt_km": 20097.905611972183,
        "timestamp": "2025-12-16T19:34:24.509536+00:00",
        "meta_object_name": "GPS BIIF-12 (PRN 32)",
        "meta_object_id": "2016-007A",
        "meta_epoch": "2025-12-14T09:19:00.023808",
        "meta_mean_motion": 2.00560678,
        "meta_eccentricity": 0.00922324,
        "meta_inclination": 55.4071,
        "meta_ra_of_asc_node": 96.7915,
        "meta_arg_of_pericenter": 243.6085,
        "meta_mean_anomaly": 115.4276,
        "meta_ephemeris_type": 0,
        "meta_classification_type": "U",
        "meta_norad_cat_id": 41328,
        "meta_element_set_no": 999,
        "meta_rev_at_epoch": 7213,
        "meta_bstar": 0,
        "meta_mean_motion_dot": -2.9e-07,
        "meta_mean_motion_ddot": 0,
        "tle_line1": "1 41328U 16007A   25348.38819472 -.00000029  00000+0  00000+0 0  9996",
        "tle_line2": "2 41328  55.4071  96.7915 0092232 243.6085 115.4276  2.00560678 72138"
      },
      "geometry": {
        "type": "Point",
        "coordinates": [
          65.1012846994159,
          -37.23288654273569
        ]
      }
    }
  ]
}